SL-14 R/B               
1 21423U 91042B   26062.81545747  .00000677  00000+0  82679-4 0  9990
2 21423  82.4912 225.6910 0015611 259.6022 100.3432 14.81822532852201
ERS-1                   
1 21574U 91050A   26063.06692984  .00000443  00000+0  15629-3 0  9991
2 21574  98.7885  81.1601 0031323 217.3678 142.5330 14.39444371814921
ARIANE 40 R/B           
1 21610U 91050F   26063.13125813  .00000424  00000+0  13953-3 0  9999
2 21610  98.2024 115.5761 0004363  93.2924 266.8765 14.42889010818192
INTERCOSMOS 25          
1 21819U 91086A   26063.12651537  .00001733  00000+0  33299-3 0  9994
2 21819  82.6063 313.3703 1487059 128.9167 245.4246 12.11982538496013
SL-8 R/B                
1 21876U 92008B   26063.13439131  .00000006  00000+0 -10063-4 0  9995
2 21876  82.9227 271.9119 0035270 148.4698 331.0453 13.75969799708653
SL-8 R/B                
1 21938U 92020B   26062.81166292  .00000098  00000+0  86285-4 0  9996
2 21938  82.9340 158.1246 0027895 315.8977 161.2475 13.75548716700324
USA 81                  
1 21949U 92023A   26063.14004190  .00000252  00000+0  86106-4 0  9990
2 21949  85.0095 134.6425 0002603  81.9295 278.2193 14.32365935 93997
COSMOS 2219             
1 22219U 92076A   26063.14490666  .00000297  00000+0  18063-3 0  9991
2 22219  71.0620  29.6579 0019304 214.4562 145.5310 14.14089647717595
SL-16 R/B               
1 22220U 92076B   26062.84662427  .00000048  00000+0  47970-4 0  9999
2 22220  70.9999 200.6805 0010605 107.2129   4.0235 14.16860043721005
COSMOS 2221             
1 22236U 92080A   26063.08646264  .00002785  00000+0  24463-3 0  9990
2 22236  82.5016 284.4495 0013542 206.5778 153.4751 14.96175748779950
SL-16 R/B               
1 22285U 92093B   26063.15656000 -.00000146  00000+0 -50220-4 0  9997
2 22285  71.0239  15.8802 0006315 299.5558  60.4935 14.15449471712372
COSMOS 2228             
1 22286U 92094A   26063.10652830  .00003705  00000+0  31769-3 0  9999
2 22286  82.5145 242.6573 0017160 324.5861  35.4221 14.97157662775228
